 2020  4 1  8 2 52.6 L                                                         1
 2020-04-01-0802-52M.INSK__024                                                 6
 STAT SP IPHASW D HRMM SECON CODA AMPLIT PERI AZIMU VELO AIN AR TRES W  DIS CAZ7
 SK00 BZ IP        8 5 13.23                                                    
                                                                                
